CCSDS_OMM_VERS = 2.0
CREATION_DATE  = 
ORIGINATOR     = 

OBJECT_NAME    = STARLINK-35595
OBJECT_ID      = 2025-236R
CENTER_NAME    = EARTH
REF_FRAME      = TEME
TIME_SYSTEM    = UTC
MEAN_ELEMENT_THEORY = SGP/SGP4

EPOCH          = 2025-11-17T20:00:04.000032
MEAN_MOTION    = 15.49348436
ECCENTRICITY   = .0001112
INCLINATION    = 53.1595
RA_OF_ASC_NODE = 264.8297
ARG_OF_PERICENTER = 97.3898
MEAN_ANOMALY   = 104.7008

EPHEMERIS_TYPE = 0
CLASSIFICATION_TYPE = U
NORAD_CAT_ID   = 66101
ELEMENT_SET_NO = 999
REV_AT_EPOCH   = 581
BSTAR          = -.13369E-2
MEAN_MOTION_DOT = -.74204E-3
MEAN_MOTION_DDOT = 0

CCSDS_OMM_VERS = 2.0
CREATION_DATE  = 
ORIGINATOR     = 

OBJECT_NAME    = STARLINK-35599
OBJECT_ID      = 2025-236S
CENTER_NAME    = EARTH
REF_FRAME      = TEME
TIME_SYSTEM    = UTC
MEAN_ELEMENT_THEORY = SGP/SGP4

EPOCH          = 2025-11-17T20:00:04.000032
MEAN_MOTION    = 15.49355382
ECCENTRICITY   = .0001194
INCLINATION    = 53.1596
RA_OF_ASC_NODE = 264.8267
ARG_OF_PERICENTER = 106.5048
MEAN_ANOMALY   = 97.4993

EPHEMERIS_TYPE = 0
CLASSIFICATION_TYPE = U
NORAD_CAT_ID   = 66102
ELEMENT_SET_NO = 999
REV_AT_EPOCH   = 581
BSTAR          = -.15261E-2
MEAN_MOTION_DOT = -.8455E-3
MEAN_MOTION_DDOT = 0

CCSDS_OMM_VERS = 2.0
CREATION_DATE  = 
ORIGINATOR     = 

OBJECT_NAME    = STARLINK-35622
OBJECT_ID      = 2025-236T
CENTER_NAME    = EARTH
REF_FRAME      = TEME
TIME_SYSTEM    = UTC
MEAN_ELEMENT_THEORY = SGP/SGP4

EPOCH          = 2025-11-17T20:00:04.000032
MEAN_MOTION    = 15.49353182
ECCENTRICITY   = .0001248
INCLINATION    = 53.1595
RA_OF_ASC_NODE = 264.8182
ARG_OF_PERICENTER = 95.2608
MEAN_ANOMALY   = 112.5802

EPHEMERIS_TYPE = 0
CLASSIFICATION_TYPE = U
NORAD_CAT_ID   = 66103
ELEMENT_SET_NO = 999
REV_AT_EPOCH   = 587
BSTAR          = -.1479E-2
MEAN_MOTION_DOT = -.81974E-3
MEAN_MOTION_DDOT = 0

CCSDS_OMM_VERS = 2.0
CREATION_DATE  = 
ORIGINATOR     = 

OBJECT_NAME    = STARLINK-35452
OBJECT_ID      = 2025-236U
CENTER_NAME    = EARTH
REF_FRAME      = TEME
TIME_SYSTEM    = UTC
MEAN_ELEMENT_THEORY = SGP/SGP4

EPOCH          = 2025-11-17T20:00:04.000032
MEAN_MOTION    = 15.49317598
ECCENTRICITY   = .00013
INCLINATION    = 53.1595
RA_OF_ASC_NODE = 264.8217
ARG_OF_PERICENTER = 92.4345
MEAN_ANOMALY   = 113.5020

EPHEMERIS_TYPE = 0
CLASSIFICATION_TYPE = U
NORAD_CAT_ID   = 66104
ELEMENT_SET_NO = 999
REV_AT_EPOCH   = 587
BSTAR          = -.60279E-3
MEAN_MOTION_DOT = -.33838E-3
MEAN_MOTION_DDOT = 0

CCSDS_OMM_VERS = 2.0
CREATION_DATE  = 
ORIGINATOR     = 

OBJECT_NAME    = STARLINK-35561
OBJECT_ID      = 2025-236V
CENTER_NAME    = EARTH
REF_FRAME      = TEME
TIME_SYSTEM    = UTC
MEAN_ELEMENT_THEORY = SGP/SGP4

EPOCH          = 2025-11-17T20:00:04.000032
MEAN_MOTION    = 15.49312974
ECCENTRICITY   = .000137
INCLINATION    = 53.1596
RA_OF_ASC_NODE = 264.8142
ARG_OF_PERICENTER = 98.8247
MEAN_ANOMALY   = 110.9469

EPHEMERIS_TYPE = 0
CLASSIFICATION_TYPE = U
NORAD_CAT_ID   = 66105
ELEMENT_SET_NO = 999
REV_AT_EPOCH   = 581
BSTAR          = -.41119E-3
MEAN_MOTION_DOT = -.23253E-3
MEAN_MOTION_DDOT = 0

CCSDS_OMM_VERS = 2.0
CREATION_DATE  = 
ORIGINATOR     = 

OBJECT_NAME    = STARLINK-35584
OBJECT_ID      = 2025-236W
CENTER_NAME    = EARTH
REF_FRAME      = TEME
TIME_SYSTEM    = UTC
MEAN_ELEMENT_THEORY = SGP/SGP4

EPOCH          = 2025-11-17T20:00:04.000032
MEAN_MOTION    = 15.49359466
ECCENTRICITY   = .0001139
INCLINATION    = 53.1595
RA_OF_ASC_NODE = 264.8093
ARG_OF_PERICENTER = 102.8473
MEAN_ANOMALY   = 108.8295

EPHEMERIS_TYPE = 0
CLASSIFICATION_TYPE = U
NORAD_CAT_ID   = 66106
ELEMENT_SET_NO = 999
REV_AT_EPOCH   = 587
BSTAR          = -.17372E-2
MEAN_MOTION_DOT = -.96056E-3
MEAN_MOTION_DDOT = 0

CCSDS_OMM_VERS = 2.0
CREATION_DATE  = 
ORIGINATOR     = 

OBJECT_NAME    = STARLINK-35593
OBJECT_ID      = 2025-236X
CENTER_NAME    = EARTH
REF_FRAME      = TEME
TIME_SYSTEM    = UTC
MEAN_ELEMENT_THEORY = SGP/SGP4

EPOCH          = 2025-11-17T20:00:04.000032
MEAN_MOTION    = 15.49318117
ECCENTRICITY   = .0001346
INCLINATION    = 53.1596
RA_OF_ASC_NODE = 264.8054
ARG_OF_PERICENTER = 96.6957
MEAN_ANOMALY   = 116.9108

EPHEMERIS_TYPE = 0
CLASSIFICATION_TYPE = U
NORAD_CAT_ID   = 66107
ELEMENT_SET_NO = 999
REV_AT_EPOCH   = 587
BSTAR          = -.62006E-3
MEAN_MOTION_DOT = -.34792E-3
MEAN_MOTION_DDOT = 0

CCSDS_OMM_VERS = 2.0
CREATION_DATE  = 
ORIGINATOR     = 

OBJECT_NAME    = STARLINK-35590
OBJECT_ID      = 2025-236Y
CENTER_NAME    = EARTH
REF_FRAME      = TEME
TIME_SYSTEM    = UTC
MEAN_ELEMENT_THEORY = SGP/SGP4

EPOCH          = 2025-11-17T20:00:04.000032
MEAN_MOTION    = 15.49309511
ECCENTRICITY   = .0001279
INCLINATION    = 53.1595
RA_OF_ASC_NODE = 264.7972
ARG_OF_PERICENTER = 103.9235
MEAN_ANOMALY   = 113.5203

EPHEMERIS_TYPE = 0
CLASSIFICATION_TYPE = U
NORAD_CAT_ID   = 66108
ELEMENT_SET_NO = 999
REV_AT_EPOCH   = 581
BSTAR          = -.42486E-3
MEAN_MOTION_DOT = -.24005E-3
MEAN_MOTION_DDOT = 0

CCSDS_OMM_VERS = 2.0
CREATION_DATE  = 
ORIGINATOR     = 

OBJECT_NAME    = STARLINK-35545
OBJECT_ID      = 2025-236Z
CENTER_NAME    = EARTH
REF_FRAME      = TEME
TIME_SYSTEM    = UTC
MEAN_ELEMENT_THEORY = SGP/SGP4

EPOCH          = 2025-11-17T20:00:04.000032
MEAN_MOTION    = 15.49359726
ECCENTRICITY   = .0001218
INCLINATION    = 53.1595
RA_OF_ASC_NODE = 264.8013
ARG_OF_PERICENTER = 103.6823
MEAN_ANOMALY   = 111.8241

EPHEMERIS_TYPE = 0
CLASSIFICATION_TYPE = U
NORAD_CAT_ID   = 66109
ELEMENT_SET_NO = 999
REV_AT_EPOCH   = 587
BSTAR          = -.16397E-2
MEAN_MOTION_DOT = -.90753E-3
MEAN_MOTION_DDOT = 0

CCSDS_OMM_VERS = 2.0
CREATION_DATE  = 
ORIGINATOR     = 

OBJECT_NAME    = STARLINK-35427
OBJECT_ID      = 2025-236AA
CENTER_NAME    = EARTH
REF_FRAME      = TEME
TIME_SYSTEM    = UTC
MEAN_ELEMENT_THEORY = SGP/SGP4

EPOCH          = 2025-11-17T20:00:04.000032
MEAN_MOTION    = 15.49349220
ECCENTRICITY   = .000113
INCLINATION    = 53.1595
RA_OF_ASC_NODE = 264.7927
ARG_OF_PERICENTER = 100.5353
MEAN_ANOMALY   = 118.8080

EPHEMERIS_TYPE = 0
CLASSIFICATION_TYPE = U
NORAD_CAT_ID   = 66110
ELEMENT_SET_NO = 999
REV_AT_EPOCH   = 587
BSTAR          = -.13881E-2
MEAN_MOTION_DOT = -.77E-3
MEAN_MOTION_DDOT = 0

CCSDS_OMM_VERS = 2.0
CREATION_DATE  = 
ORIGINATOR     = 

OBJECT_NAME    = STARLINK-35574
OBJECT_ID      = 2025-236AB
CENTER_NAME    = EARTH
REF_FRAME      = TEME
TIME_SYSTEM    = UTC
MEAN_ELEMENT_THEORY = SGP/SGP4

EPOCH          = 2025-11-17T20:00:04.000032
MEAN_MOTION    = 15.49315608
ECCENTRICITY   = .0001087
INCLINATION    = 53.1596
RA_OF_ASC_NODE = 264.7889
ARG_OF_PERICENTER = 94.9344
MEAN_ANOMALY   = 126.3406

EPHEMERIS_TYPE = 0
CLASSIFICATION_TYPE = U
NORAD_CAT_ID   = 66111
ELEMENT_SET_NO = 999
REV_AT_EPOCH   = 581
BSTAR          = -.59871E-3
MEAN_MOTION_DOT = -.33611E-3
MEAN_MOTION_DDOT = 0

CCSDS_OMM_VERS = 2.0
CREATION_DATE  = 
ORIGINATOR     = 

OBJECT_NAME    = STARLINK-35531
OBJECT_ID      = 2025-236AC
CENTER_NAME    = EARTH
REF_FRAME      = TEME
TIME_SYSTEM    = UTC
MEAN_ELEMENT_THEORY = SGP/SGP4

EPOCH          = 2025-11-17T20:00:04.000032
MEAN_MOTION    = 15.49320755
ECCENTRICITY   = .0001186
INCLINATION    = 53.1595
RA_OF_ASC_NODE = 264.7810
ARG_OF_PERICENTER = 97.6633
MEAN_ANOMALY   = 127.4425

EPHEMERIS_TYPE = 0
CLASSIFICATION_TYPE = U
NORAD_CAT_ID   = 66112
ELEMENT_SET_NO = 999
REV_AT_EPOCH   = 587
BSTAR          = -.72571E-3
MEAN_MOTION_DOT = -.40617E-3
MEAN_MOTION_DDOT = 0

