STARLINK-35595          
1 66101U 25236R   25321.83337963 -.00074204  00000+0 -13369-2 0  9999
2 66101  53.1595 264.8297 0001112  97.3898 104.7008 15.49348436  5812
STARLINK-35599          
1 66102U 25236S   25321.83337963 -.00084550  00000+0 -15261-2 0  9998
2 66102  53.1596 264.8267 0001194 106.5048  97.4993 15.49355382  5810
STARLINK-35622          
1 66103U 25236T   25321.83337963 -.00081974  00000+0 -14790-2 0  9992
2 66103  53.1595 264.8182 0001248  95.2608 112.5802 15.49353182  5872
STARLINK-35452          
1 66104U 25236U   25321.83337963 -.00033838  00000+0 -60279-3 0  9993
2 66104  53.1595 264.8217 0001300  92.4345 113.5020 15.49317598  5872
STARLINK-35561          
1 66105U 25236V   25321.83337963 -.00023253  00000+0 -41119-3 0  9996
2 66105  53.1596 264.8142 0001370  98.8247 110.9469 15.49312974  5814
STARLINK-35584          
1 66106U 25236W   25321.83337963 -.00096056  00000+0 -17372-2 0  9991
2 66106  53.1595 264.8093 0001139 102.8473 108.8295 15.49359466  5875
STARLINK-35593          
1 66107U 25236X   25321.83337963 -.00034792  00000+0 -62006-3 0  9996
2 66107  53.1596 264.8054 0001346  96.6957 116.9108 15.49318117  5872
STARLINK-35590          
1 66108U 25236Y   25321.83337963 -.00024005  00000+0 -42486-3 0  9993
2 66108  53.1595 264.7972 0001279 103.9235 113.5203 15.49309511  5817
STARLINK-35545          
1 66109U 25236Z   25321.83337963 -.00090753  00000+0 -16397-2 0  9998
2 66109  53.1595 264.8013 0001218 103.6823 111.8241 15.49359726  5870
STARLINK-35427          
1 66110U 25236AA  25321.83337963 -.00077000  00000+0 -13881-2 0  9995
2 66110  53.1595 264.7927 0001130 100.5353 118.8080 15.49349220  5878
STARLINK-35574          
1 66111U 25236AB  25321.83337963 -.00033611  00000+0 -59871-3 0  9996
2 66111  53.1596 264.7889 0001087  94.9344 126.3406 15.49315608  5817
STARLINK-35531          
1 66112U 25236AC  25321.83337963 -.00040617  00000+0 -72571-3 0  9993
2 66112  53.1595 264.7810 0001186  97.6633 127.4425 15.49320755  5870
